STARLINK-2699           
1 48433U 21040F   25227.52597330  .00000949  00000+0  82580-4 0  9999
2 48433  53.0559 357.4031 0001162  85.7075 274.4046 15.06408039235964
STARLINK-2692           
1 48434U 21040G   25226.76071714 -.00001985  00000+0 -11442-3 0  9999
2 48434  53.0545   6.0763 0001586 102.5241 257.5926 15.06396463235788
STARLINK-2633           
1 48435U 21040H   25227.43057391  .00000098  00000+0  25457-4 0  9994
2 48435  53.0572  12.5596 0001227  90.3767 269.7363 15.06405753235743
STARLINK-2639           
1 48436U 21040J   25226.42475183  .00002962  00000+0  21755-3 0  9994
2 48436  53.0577  32.0719 0001295  83.7606 276.3531 15.06422842235385
STARLINK-2642           
1 48437U 21040K   25227.47065975  .00001195  00000+0  99098-4 0  9998
2 48437  53.0557  37.3719 0001366  91.3673 268.7473 15.06394603235406
STARLINK-2640           
1 48438U 21040L   25226.84500527 -.00004292  00000+0 -26958-3 0  9993
2 48438  53.0554  30.4462 0000957  98.9376 261.1722 15.06381572235440
STARLINK-2583           
1 48439U 21040M   25227.47894647  .00000104  00000+0  25877-4 0  9999
2 48439  53.0551  27.3338 0001351  98.3133 261.8009 15.06403984235547
STARLINK-2682           
1 48440U 21040N   25227.47526474  .00000094  00000+0  25182-4 0  9998
2 48440  53.0570  27.3514 0001403  96.6645 263.4503 15.06403851235543
STARLINK-2702           
1 48441U 21040P   25227.47157348 -.00002897  00000+0 -17563-3 0  9997
2 48441  53.0560  27.3726 0001256  96.7503 263.3628 15.06406634235547
STARLINK-2644           
1 48442U 21040Q   25227.46789195  .00002381  00000+0  17869-3 0  9993
2 48442  53.0539  27.3816 0001378  91.7258 268.3889 15.06397383235545
STARLINK-2663           
1 48443U 21040R   25227.46420073  .00001791  00000+0  13908-3 0  9995
2 48443  53.0565  27.4017 0001402  90.9187 269.1963 15.06398711235547
STARLINK-2645           
1 48444U 21040S   25227.46051571 -.00000145  00000+0  91509-5 0  9997
2 48444  53.0570  27.4174 0001218  86.1124 274.0004 15.06404674235548
STARLINK-2634           
1 48445U 21040T   25226.46163241  .00000134  00000+0  27875-4 0  9996
2 48445  53.0552  31.9007 0001259  92.9792 267.1341 15.06395966235398
STARLINK-2655           
1 48449U 21040X   25227.44577644 -.00002366  00000+0 -13994-3 0  9992
2 48449  53.0560  27.4875 0001531  80.6883 279.4279 15.06412178235540
STARLINK-2660           
1 48450U 21040Y   25227.44484185  .00000565  00000+0  56813-4 0  9996
2 48450  53.0560  27.5136 0001442  91.1784 268.9370 15.06400555235542
STARLINK-2703           
1 48452U 21040AA  25226.44320027  .00001338  00000+0  10873-3 0  9995
2 48452  53.0562  31.9560 0001550  91.5280 268.5887 15.06396315235391
STARLINK-2620           
1 48453U 21040AB  25226.83760158 -.00001074  00000+0 -53208-4 0  9991
2 48453  53.0569  30.2180 0001323  97.8527 262.2612 15.06395509235458
