[{"OBJECT_NAME":"STARLINK-2699","OBJECT_ID":"2021-040F","EPOCH":"2025-08-15T12:37:24.093120","MEAN_MOTION":15.06408039,"ECCENTRICITY":0.0001162,"INCLINATION":53.0559,"RA_OF_ASC_NODE":357.4031,"ARG_OF_PERICENTER":85.7075,"MEAN_ANOMALY":274.4046,"EPHEMERIS_TYPE":0,"CLASSIFICATION_TYPE":"U","NORAD_CAT_ID":48433,"ELEMENT_SET_NO":999,"REV_AT_EPOCH":23596,"BSTAR":8.258e-5,"MEAN_MOTION_DOT":9.49e-6,"MEAN_MOTION_DDOT":0},{"OBJECT_NAME":"STARLINK-2692","OBJECT_ID":"2021-040G","EPOCH":"2025-08-14T18:15:25.960896","MEAN_MOTION":15.06396463,"ECCENTRICITY":0.0001586,"INCLINATION":53.0545,"RA_OF_ASC_NODE":6.0763,"ARG_OF_PERICENTER":102.5241,"MEAN_ANOMALY":257.5926,"EPHEMERIS_TYPE":0,"CLASSIFICATION_TYPE":"U","NORAD_CAT_ID":48434,"ELEMENT_SET_NO":999,"REV_AT_EPOCH":23578,"BSTAR":-0.00011442,"MEAN_MOTION_DOT":-1.985e-5,"MEAN_MOTION_DDOT":0},{"OBJECT_NAME":"STARLINK-2633","OBJECT_ID":"2021-040H","EPOCH":"2025-08-15T10:20:01.585824","MEAN_MOTION":15.06405753,"ECCENTRICITY":0.0001227,"INCLINATION":53.0572,"RA_OF_ASC_NODE":12.5596,"ARG_OF_PERICENTER":90.3767,"MEAN_ANOMALY":269.7363,"EPHEMERIS_TYPE":0,"CLASSIFICATION_TYPE":"U","NORAD_CAT_ID":48435,"ELEMENT_SET_NO":999,"REV_AT_EPOCH":23574,"BSTAR":2.5457e-5,"MEAN_MOTION_DOT":9.8e-7,"MEAN_MOTION_DDOT":0},{"OBJECT_NAME":"STARLINK-2639","OBJECT_ID":"2021-040J","EPOCH":"2025-08-14T10:11:38.558112","MEAN_MOTION":15.06422842,"ECCENTRICITY":0.0001295,"INCLINATION":53.0577,"RA_OF_ASC_NODE":32.0719,"ARG_OF_PERICENTER":83.7606,"MEAN_ANOMALY":276.3531,"EPHEMERIS_TYPE":0,"CLASSIFICATION_TYPE":"U","NORAD_CAT_ID":48436,"ELEMENT_SET_NO":999,"REV_AT_EPOCH":23538,"BSTAR":0.00021755,"MEAN_MOTION_DOT":2.962e-5,"MEAN_MOTION_DDOT":0},{"OBJECT_NAME":"STARLINK-2642","OBJECT_ID":"2021-040K","EPOCH":"2025-08-15T11:17:45.002400","MEAN_MOTION":15.06394603,"ECCENTRICITY":0.0001366,"INCLINATION":53.0557,"RA_OF_ASC_NODE":37.3719,"ARG_OF_PERICENTER":91.3673,"MEAN_ANOMALY":268.7473,"EPHEMERIS_TYPE":0,"CLASSIFICATION_TYPE":"U","NORAD_CAT_ID":48437,"ELEMENT_SET_NO":999,"REV_AT_EPOCH":23540,"BSTAR":9.9098e-5,"MEAN_MOTION_DOT":1.195e-5,"MEAN_MOTION_DDOT":0},{"OBJECT_NAME":"STARLINK-2640","OBJECT_ID":"2021-040L","EPOCH":"2025-08-14T20:16:48.455328","MEAN_MOTION":15.06381572,"ECCENTRICITY":9.57e-5,"INCLINATION":53.0554,"RA_OF_ASC_NODE":30.4462,"ARG_OF_PERICENTER":98.9376,"MEAN_ANOMALY":261.1722,"EPHEMERIS_TYPE":0,"CLASSIFICATION_TYPE":"U","NORAD_CAT_ID":48438,"ELEMENT_SET_NO":999,"REV_AT_EPOCH":23544,"BSTAR":-0.00026958,"MEAN_MOTION_DOT":-4.292e-5,"MEAN_MOTION_DDOT":0},{"OBJECT_NAME":"STARLINK-2583","OBJECT_ID":"2021-040M","EPOCH":"2025-08-15T11:29:40.975008","MEAN_MOTION":15.06403984,"ECCENTRICITY":0.0001351,"INCLINATION":53.0551,"RA_OF_ASC_NODE":27.3338,"ARG_OF_PERICENTER":98.3133,"MEAN_ANOMALY":261.8009,"EPHEMERIS_TYPE":0,"CLASSIFICATION_TYPE":"U","NORAD_CAT_ID":48439,"ELEMENT_SET_NO":999,"REV_AT_EPOCH":23554,"BSTAR":2.5877e-5,"MEAN_MOTION_DOT":1.04e-6,"MEAN_MOTION_DDOT":0},{"OBJECT_NAME":"STARLINK-2682","OBJECT_ID":"2021-040N","EPOCH":"2025-08-15T11:24:22.873536","MEAN_MOTION":15.06403851,"ECCENTRICITY":0.0001403,"INCLINATION":53.057,"RA_OF_ASC_NODE":27.3514,"ARG_OF_PERICENTER":96.6645,"MEAN_ANOMALY":263.4503,"EPHEMERIS_TYPE":0,"CLASSIFICATION_TYPE":"U","NORAD_CAT_ID":48440,"ELEMENT_SET_NO":999,"REV_AT_EPOCH":23554,"BSTAR":2.5182e-5,"MEAN_MOTION_DOT":9.4e-7,"MEAN_MOTION_DDOT":0},{"OBJECT_NAME":"STARLINK-2702","OBJECT_ID":"2021-040P","EPOCH":"2025-08-15T11:19:03.948672","MEAN_MOTION":15.06406634,"ECCENTRICITY":0.0001256,"INCLINATION":53.056,"RA_OF_ASC_NODE":27.3726,"ARG_OF_PERICENTER":96.7503,"MEAN_ANOMALY":263.3628,"EPHEMERIS_TYPE":0,"CLASSIFICATION_TYPE":"U","NORAD_CAT_ID":48441,"ELEMENT_SET_NO":999,"REV_AT_EPOCH":23554,"BSTAR":-0.00017563,"MEAN_MOTION_DOT":-2.897e-5,"MEAN_MOTION_DDOT":0},{"OBJECT_NAME":"STARLINK-2644","OBJECT_ID":"2021-040Q","EPOCH":"2025-08-15T11:13:45.864480","MEAN_MOTION":15.06397383,"ECCENTRICITY":0.0001378,"INCLINATION":53.0539,"RA_OF_ASC_NODE":27.3816,"ARG_OF_PERICENTER":91.7258,"MEAN_ANOMALY":268.3889,"EPHEMERIS_TYPE":0,"CLASSIFICATION_TYPE":"U","NORAD_CAT_ID":48442,"ELEMENT_SET_NO":999,"REV_AT_EPOCH":23554,"BSTAR":0.00017869,"MEAN_MOTION_DOT":2.381e-5,"MEAN_MOTION_DDOT":0},{"OBJECT_NAME":"STARLINK-2663","OBJECT_ID":"2021-040R","EPOCH":"2025-08-15T11:08:26.943072","MEAN_MOTION":15.06398711,"ECCENTRICITY":0.0001402,"INCLINATION":53.0565,"RA_OF_ASC_NODE":27.4017,"ARG_OF_PERICENTER":90.9187,"MEAN_ANOMALY":269.1963,"EPHEMERIS_TYPE":0,"CLASSIFICATION_TYPE":"U","NORAD_CAT_ID":48443,"ELEMENT_SET_NO":999,"REV_AT_EPOCH":23554,"BSTAR":0.00013908,"MEAN_MOTION_DOT":1.791e-5,"MEAN_MOTION_DDOT":0},{"OBJECT_NAME":"STARLINK-2645","OBJECT_ID":"2021-040S","EPOCH":"2025-08-15T11:03:08.557344","MEAN_MOTION":15.06404674,"ECCENTRICITY":0.0001218,"INCLINATION":53.057,"RA_OF_ASC_NODE":27.4174,"ARG_OF_PERICENTER":86.1124,"MEAN_ANOMALY":274.0004,"EPHEMERIS_TYPE":0,"CLASSIFICATION_TYPE":"U","NORAD_CAT_ID":48444,"ELEMENT_SET_NO":999,"REV_AT_EPOCH":23554,"BSTAR":9.1509e-6,"MEAN_MOTION_DOT":-1.45e-6,"MEAN_MOTION_DDOT":0},{"OBJECT_NAME":"STARLINK-2634","OBJECT_ID":"2021-040T","EPOCH":"2025-08-14T11:04:45.040224","MEAN_MOTION":15.06395966,"ECCENTRICITY":0.0001259,"INCLINATION":53.0552,"RA_OF_ASC_NODE":31.9007,"ARG_OF_PERICENTER":92.9792,"MEAN_ANOMALY":267.1341,"EPHEMERIS_TYPE":0,"CLASSIFICATION_TYPE":"U","NORAD_CAT_ID":48445,"ELEMENT_SET_NO":999,"REV_AT_EPOCH":23539,"BSTAR":2.7875e-5,"MEAN_MOTION_DOT":1.34e-6,"MEAN_MOTION_DDOT":0},{"OBJECT_NAME":"STARLINK-2655","OBJECT_ID":"2021-040X","EPOCH":"2025-08-15T10:41:55.084416","MEAN_MOTION":15.06412178,"ECCENTRICITY":0.0001531,"INCLINATION":53.056,"RA_OF_ASC_NODE":27.4875,"ARG_OF_PERICENTER":80.6883,"MEAN_ANOMALY":279.4279,"EPHEMERIS_TYPE":0,"CLASSIFICATION_TYPE":"U","NORAD_CAT_ID":48449,"ELEMENT_SET_NO":999,"REV_AT_EPOCH":23554,"BSTAR":-0.00013994,"MEAN_MOTION_DOT":-2.366e-5,"MEAN_MOTION_DDOT":0},{"OBJECT_NAME":"STARLINK-2660","OBJECT_ID":"2021-040Y","EPOCH":"2025-08-15T10:40:34.335840","MEAN_MOTION":15.06400555,"ECCENTRICITY":0.0001442,"INCLINATION":53.056,"RA_OF_ASC_NODE":27.5136,"ARG_OF_PERICENTER":91.1784,"MEAN_ANOMALY":268.937,"EPHEMERIS_TYPE":0,"CLASSIFICATION_TYPE":"U","NORAD_CAT_ID":48450,"ELEMENT_SET_NO":999,"REV_AT_EPOCH":23554,"BSTAR":5.6813e-5,"MEAN_MOTION_DOT":5.65e-6,"MEAN_MOTION_DDOT":0},{"OBJECT_NAME":"STARLINK-2703","OBJECT_ID":"2021-040AA","EPOCH":"2025-08-14T10:38:12.503328","MEAN_MOTION":15.06396315,"ECCENTRICITY":0.000155,"INCLINATION":53.0562,"RA_OF_ASC_NODE":31.956,"ARG_OF_PERICENTER":91.528,"MEAN_ANOMALY":268.5887,"EPHEMERIS_TYPE":0,"CLASSIFICATION_TYPE":"U","NORAD_CAT_ID":48452,"ELEMENT_SET_NO":999,"REV_AT_EPOCH":23539,"BSTAR":0.00010873,"MEAN_MOTION_DOT":1.338e-5,"MEAN_MOTION_DDOT":0},{"OBJECT_NAME":"STARLINK-2620","OBJECT_ID":"2021-040AB","EPOCH":"2025-08-14T20:06:08.776512","MEAN_MOTION":15.06395509,"ECCENTRICITY":0.0001323,"INCLINATION":53.0569,"RA_OF_ASC_NODE":30.218,"ARG_OF_PERICENTER":97.8527,"MEAN_ANOMALY":262.2612,"EPHEMERIS_TYPE":0,"CLASSIFICATION_TYPE":"U","NORAD_CAT_ID":48453,"ELEMENT_SET_NO":999,"REV_AT_EPOCH":23545,"BSTAR":-5.3208e-5,"MEAN_MOTION_DOT":-1.074e-5,"MEAN_MOTION_DDOT":0}]
